{"0":{"nodes":"0 1","highway":"yes","oneway":"yes"},"1":{"nodes":"2 3","highway":"yes","oneway":"yes"},"2":{"nodes":"4 5","highway":"yes","oneway":"yes"},"3":{"nodes":"6 7","highway":"yes","oneway":"yes"},"4":{"tiger:zip_left":"90015","tiger:zip_right":"90015","tiger:cfcc":"A41","nodes":"7 8 5","name":"East 14th Street","tiger:name_base":"14th","tiger:name_direction_prefix":"E","tiger:name_type":"St","highway":"residential","tiger:county":"Los Angeles, CA"},"5":{"tiger:zip_left":"90015","tiger:zip_right":"90015","tiger:cfcc":"A41","nodes":"1 7","lanes":"2","name":"Santee Street","tiger:name_base":"Santee","tiger:name_type":"St","highway":"tertiary","tiger:county":"Los Angeles, CA"},"6":{"nodes":"3 9 1","lanes":"2","name":"Pico Boulevard","highway":"secondary"},"7":{"tiger:zip_left":"90015","tiger:zip_right":"90015","tiger:cfcc":"A41","nodes":"10 5","lanes":"4","name":"Maple Avenue","tiger:name_base":"Maple","tiger:name_type":"Ave","highway":"secondary","tiger:county":"Los Angeles, CA"},"8":{"lanes:forward":"2","lanes:backward":"2","tiger:name_type":"Ave","tiger:county":"Los Angeles, CA","tiger:zip_left":"90015","tiger:zip_right":"90015","tiger:cfcc":"A41","nodes":"3 10","lanes":"4","name":"Maple Avenue","tiger:name_base":"Maple","turn:lanes:backward":"|right","highway":"secondary"}}