{"22":{"lon":-118.255427,"lat":34.0392057},"23":{"lon":-118.2552981,"lat":34.039086},"24":{"lon":-118.2535148,"lat":34.0378942},"25":{"lon":-118.2532032,"lat":34.0376487},"26":{"lon":-118.2535727,"lat":34.0379363},"27":{"lon":-118.2550914,"highway":"crossing","crossing":"traffic_signals","lat":34.0389361},"28":{"lon":-118.2531472,"lat":34.0390818},"10":{"lon":-118.2519732,"lat":34.0387913},"11":{"lon":-118.2524433,"lat":34.0392388},"12":{"lon":-118.2536577,"lat":34.0380025},"13":{"lon":-118.2523393,"lat":34.0383429},"14":{"lon":-118.2528506,"lat":34.0378577},"15":{"lon":-118.2555465,"lat":34.0397943},"16":{"lon":-118.2557397,"highway":"crossing","crossing":"traffic_signals","lat":34.0396682},"17":{"lon":-118.2558518,"highway":"traffic_signals","lat":34.0395951},"18":{"lon":-118.2537302,"lat":34.0385674},"19":{"lon":-118.2531305,"highway":"traffic_signals","lat":34.0375921},"0":{"lon":-118.25322398153,"lat":34.04012639244},"1":{"lon":-118.2533637,"highway":"traffic_signals","lat":34.0400347},"2":{"lon":-118.25257792635,"lat":34.03957168972},"3":{"lon":-118.2527045,"highway":"traffic_signals","lat":34.0394724},"4":{"lon":-118.25512711998,"lat":34.03874607895},"5":{"lon":-118.2549681,"highway":"traffic_signals","lat":34.0388623},"6":{"lon":-118.2541813886,"lat":34.03821394275},"7":{"lon":-118.2540363,"highway":"traffic_signals","lat":34.0382973},"8":{"lon":-118.2538284,"lat":34.0396951},"9":{"lon":-118.25192,"highway":"traffic_signals","lat":34.0387407},"20":{"lon":-118.2541052,"highway":"traffic_signals","lat":34.0407353},"21":{"lon":-118.2538167,"lat":34.0404699}}