{"11":{"tiger:zip_left":"90015","tiger:zip_right":"90015","tiger:cfcc":"A41","nodes":"9 7","lanes":"2","name":"Wall Street","source_ref":"AM909_DSCR0358","tiger:name_base":"Wall","tiger:name_type":"St","highway":"tertiary","tiger:county":"Los Angeles, CA"},"12":{"tiger:zip_left":"90021","tiger:zip_right":"90021","turn:lanes":"left||right","tiger:cfcc":"A41","nodes":"20 7","lanes":"3","name":"East 12th Street","tiger:name_base":"12th","tiger:name_direction_prefix":"E","tiger:name_type":"St","highway":"tertiary","tiger:county":"Los Angeles, CA"},"0":{"nodes":"0 1","highway":"yes","oneway":"yes"},"1":{"nodes":"2 3","highway":"yes","oneway":"yes"},"2":{"nodes":"4 5","highway":"yes","oneway":"yes"},"3":{"nodes":"6 7","highway":"yes","oneway":"yes"},"4":{"nodes":"8 9","highway":"yes","oneway":"yes"},"5":{"nodes":"10 11","highway":"yes","oneway":"yes"},"6":{"tiger:zip_left":"90015","tiger:zip_right":"90015","tiger:cfcc":"A41","nodes":"9 12 13 14 15 16 11","lanes":"2","name":"East 11th Street","tiger:name_base":"11th","tiger:name_direction_prefix":"E","tiger:name_type":"St","highway":"tertiary","tiger:county":"Los Angeles, CA"},"7":{"tiger:zip_left":"90021","tiger:zip_right":"90021","tiger:cfcc":"A41","nodes":"1 17 3 18 5 19 20","lanes":"2","name":"East 12th Street","tiger:name_base":"12th","tiger:name_direction_prefix":"E","tiger:name_type":"St","highway":"tertiary","tiger:county":"Los Angeles, CA"},"8":{"tiger:zip_left":"90015","tiger:zip_right":"90015","tiger:cfcc":"A41","nodes":"15 3","lanes":"2","name":"Santee Street","tiger:name_base":"Santee","tiger:name_type":"St","highway":"tertiary","tiger:county":"Los Angeles, CA"},"9":{"nodes":"11 1","lanes":"4","name":"South Los Angeles Street","source_ref":"AM909_DSCR0359","highway":"secondary","oneway":"no"},"10":{"tiger:zip_left":"90013; 90015:90015","tiger:zip_right":"90013; 90015:90015","tiger:cfcc":"A41","nodes":"13 5","lanes":"2","name":"Maple Avenue","tiger:name_base":"Maple","tiger:name_direction_prefix":"S","tiger:name_type":"Ave","highway":"secondary","tiger:county":"Los Angeles, CA"}}