{"44":{"lon":-118.2533001,"highway":"crossing","crossing":"traffic_signals","lat":34.0399805},"45":{"lon":-118.2540363,"highway":"traffic_signals","lat":34.0382973},"46":{"lon":-118.2539513,"highway":"crossing","crossing":"traffic_signals","lat":34.0382311},"47":{"lon":-118.2536577,"lat":34.0380025},"48":{"lon":-118.2544393,"lat":34.038559},"49":{"lon":-118.2541272,"highway":"crossing","crossing":"traffic_signals","lat":34.0383564},"50":{"lon":-118.2523393,"lat":34.0383429},"51":{"lon":-118.2528506,"lat":34.0378577},"52":{"lon":-118.256197,"lat":34.0393697},"53":{"lon":-118.2562967,"lat":34.0393046},"10":{"lon":-118.25303271444,"lat":34.03752629463},"54":{"lon":-118.2565757,"lat":34.0390887},"11":{"lon":-118.2531305,"highway":"traffic_signals","lat":34.0375921},"55":{"lon":-118.2570807,"lat":34.0384871},"12":{"lon":-118.25184125908,"lat":34.03866755634},"56":{"lon":-118.2555465,"lat":34.0397943},"13":{"lon":-118.25192,"highway":"traffic_signals","lat":34.0387407},"57":{"lon":-118.2557397,"highway":"crossing","crossing":"traffic_signals","lat":34.0396682},"14":{"lon":-118.25264705915,"lat":34.03952625309},"58":{"lon":-118.2560121,"highway":"crossing","crossing":"traffic_signals","lat":34.0394905},"59":{"lon":-118.2537302,"lat":34.0385674},"15":{"lon":-118.2527045,"highway":"traffic_signals","lat":34.0394724},"16":{"lon":-118.25328119559,"lat":34.04009914578},"17":{"lon":-118.2533637,"highway":"traffic_signals","lat":34.0400347},"18":{"lon":-118.25416146163,"lat":34.04078700163},"19":{"lon":-118.2541052,"highway":"traffic_signals","lat":34.0407353},"0":{"lon":-118.25846637798,"lat":34.03700664847},"1":{"lon":-118.2583516,"lat":34.0369261},"2":{"lon":-118.25738779733,"lat":34.03620119063},"3":{"lon":-118.2573305,"lat":34.0362815},"4":{"lon":-118.25640954977,"lat":34.03555681885},"5":{"lon":-118.2563395,"lat":34.0356376},"6":{"lon":-118.25525258391,"lat":34.03492543369},"7":{"lon":-118.2553406,"lat":34.0349903},"8":{"lon":-118.25405485773,"lat":34.03644282878},"9":{"lon":-118.2541513,"lat":34.036501},"60":{"lon":-118.2539366,"highway":"crossing","crossing":"traffic_signals","lat":34.0383853},"61":{"lon":-118.2541562,"highway":"crossing","crossing":"traffic_signals","lat":34.0381929},"62":{"lon":-118.2543329,"lat":34.0380389},"63":{"lon":-118.2546534,"lat":34.0377597},"20":{"lon":-118.25590161354,"lat":34.03964641798},"64":{"lon":-118.2550743,"lat":34.0371992},"21":{"lon":-118.2558518,"highway":"traffic_signals","lat":34.0395951},"65":{"lon":-118.2533668,"lat":34.0373534},"22":{"lon":-118.25723572843,"lat":34.0384993222},"66":{"lon":-118.2536616,"lat":34.0370695},"67":{"lon":-118.2540234,"highway":"crossing","crossing":"traffic_signals","lat":34.040658},"23":{"lon":-118.257128,"highway":"traffic_signals","lat":34.0384308},"24":{"lon":-118.2546452,"lat":34.0368191},"68":{"lon":-118.2538167,"lat":34.0404699},"25":{"lon":-118.2551268,"lat":34.0371292},"69":{"lon":-118.2534366,"highway":"crossing","crossing":"traffic_signals","lat":34.0401036},"26":{"lon":-118.2556488,"lat":34.0374632},"27":{"lon":-118.2561342,"lat":34.0377738},"28":{"lon":-118.2566434,"lat":34.0381105},"29":{"lon":-118.2578456,"lat":34.0366067},"70":{"lon":-118.255427,"lat":34.0392057},"71":{"lon":-118.2552981,"lat":34.039086},"72":{"lon":-118.2545864,"lat":34.038649},"73":{"lon":-118.2545242,"lat":34.0386142},"30":{"lon":-118.2568534,"lat":34.0359715},"74":{"lon":-118.2557518,"highway":"crossing","crossing":"traffic_signals","lat":34.0394954},"31":{"lon":-118.2558599,"lat":34.0353268},"75":{"lon":-118.2535148,"lat":34.0378942},"32":{"lon":-118.2556543,"lat":34.0351936},"76":{"lon":-118.2532032,"lat":34.0376487},"77":{"lon":-118.2549086,"highway":"crossing","crossing":"traffic_signals","lat":34.038829},"33":{"lon":-118.2534552,"highway":"crossing","crossing":"traffic_signals","lat":34.0399678},"34":{"lon":-118.2538284,"lat":34.0396951},"78":{"lon":-118.2535727,"lat":34.0379363},"35":{"lon":-118.2548146,"highway":"crossing","crossing":"traffic_signals","lat":34.0389745},"79":{"lon":-118.2550914,"highway":"crossing","crossing":"traffic_signals","lat":34.0389361},"36":{"lon":-118.2549681,"highway":"traffic_signals","lat":34.0388623},"37":{"lon":-118.2551029,"highway":"crossing","crossing":"traffic_signals","lat":34.0387695},"38":{"lon":-118.2555865,"lat":34.0384368},"39":{"lon":-118.2560822,"lat":34.0378368},"80":{"lon":-118.254211,"highway":"crossing","crossing":"traffic_signals","lat":34.0406662},"81":{"lon":-118.2528006,"highway":"crossing","crossing":"traffic_signals","lat":34.0393876},"82":{"lon":-118.2531472,"lat":34.0390818},"40":{"lon":-118.2519732,"lat":34.0387913},"41":{"lon":-118.2524433,"lat":34.0392388},"42":{"lon":-118.2526519,"highway":"crossing","crossing":"traffic_signals","lat":34.0394254},"43":{"lon":-118.252799,"highway":"crossing","crossing":"traffic_signals","lat":34.039553}}